{
  "type": "FeatureCollection",
  "features": [
    {
      "type": "Feature",
      "properties": {
        "norad_id": 34056,
        "name": "COSMOS 2251 DEB",
        "group": "cosmos-2251-debris",
        "lat": -73.60841824710266,
        "lon": -46.499626026970844,
        "alt_km": 915.8962947501877,
        "timestamp": "2025-12-23T11:34:48.554233+00:00",
        "meta_object_name": "COSMOS 2251 DEB",
        "meta_object_id": "1993-036JT",
        "meta_epoch": "2025-12-22T21:21:15.255360",
        "meta_mean_motion": 14.20590306,
        "meta_eccentricity": 0.0123744,
        "meta_inclination": 74.0583,
        "meta_ra_of_asc_node": 58.2276,
        "meta_arg_of_pericenter": 103.3931,
        "meta_mean_anomaly": 12.2025,
        "meta_ephemeris_type": 0,
        "meta_classification_type": "U",
        "meta_norad_cat_id": 34056,
        "meta_element_set_no": 999,
        "meta_rev_at_epoch": 86555,
        "meta_bstar": 0.00068039,
        "meta_mean_motion_dot": 1.557e-05,
        "meta_mean_motion_ddot": 0,
        "tle_line1": "1 34056U 93036JT  25356.88975990  .00001557  00000+0  68039-3 0  9991",
        "tle_line2": "2 34056  74.0583  58.2276 0123744 103.3931  12.2025 14.20590306865559"
      },
      "geometry": {
        "type": "Point",
        "coordinates": [
          -46.499626026970844,
          -73.60841824710266
        ]
      }
    },
    {
      "type": "Feature",
      "properties": {
        "norad_id": 34058,
        "name": "COSMOS 2251 DEB",
        "group": "cosmos-2251-debris",
        "lat": 71.58445254354193,
        "lon": -139.34724042592944,
        "alt_km": 951.0057037058014,
        "timestamp": "2025-12-23T11:34:48.554243+00:00",
        "meta_object_name": "COSMOS 2251 DEB",
        "meta_object_id": "1993-036JV",
        "meta_epoch": "2025-12-22T14:19:49.139328",
        "meta_mean_motion": 13.56090879,
        "meta_eccentricity": 0.03775161,
        "meta_inclination": 73.9315,
        "meta_ra_of_asc_node": 162.1346,
        "meta_arg_of_pericenter": 155.4967,
        "meta_mean_anomaly": 288.6141,
        "meta_ephemeris_type": 0,
        "meta_classification_type": "U",
        "meta_norad_cat_id": 34058,
        "meta_element_set_no": 999,
        "meta_rev_at_epoch": 83276,
        "meta_bstar": 0.00064974431,
        "meta_mean_motion_dot": 7.01e-06,
        "meta_mean_motion_ddot": 0,
        "tle_line1": "1 34058U 93036JV  25356.59709652  .00000701  00000+0  64974-3 0  9995",
        "tle_line2": "2 34058  73.9315 162.1346 0377516 155.4967 288.6141 13.56090879832763"
      },
      "geometry": {
        "type": "Point",
        "coordinates": [
          -139.34724042592944,
          71.58445254354193
        ]
      }
    },
    {
      "type": "Feature",
      "properties": {
        "norad_id": 34059,
        "name": "COSMOS 2251 DEB",
        "group": "cosmos-2251-debris",
        "lat": 74.01287849662323,
        "lon": -106.45815565604674,
        "alt_km": 720.0433643517326,
        "timestamp": "2025-12-23T11:34:48.554251+00:00",
        "meta_object_name": "COSMOS 2251 DEB",
        "meta_object_id": "1993-036JW",
        "meta_epoch": "2025-12-22T22:30:14.541984",
        "meta_mean_motion": 14.53004954,
        "meta_eccentricity": 0.0018426,
        "meta_inclination": 74.0369,
        "meta_ra_of_asc_node": 167.0373,
        "meta_arg_of_pericenter": 243.3456,
        "meta_mean_anomaly": 237.2844,
        "meta_ephemeris_type": 0,
        "meta_classification_type": "U",
        "meta_norad_cat_id": 34059,
        "meta_element_set_no": 999,
        "meta_rev_at_epoch": 88607,
        "meta_bstar": 0.00082432,
        "meta_mean_motion_dot": 3.383e-05,
        "meta_mean_motion_ddot": 0,
        "tle_line1": "1 34059U 93036JW  25356.93766831  .00003383  00000+0  82432-3 0  9994",
        "tle_line2": "2 34059  74.0369 167.0373 0018426 243.3456 237.2844 14.53004954886071"
      },
      "geometry": {
        "type": "Point",
        "coordinates": [
          -106.45815565604674,
          74.01287849662323
        ]
      }
    },
    {
      "type": "Feature",
      "properties": {
        "norad_id": 34061,
        "name": "COSMOS 2251 DEB",
        "group": "cosmos-2251-debris",
        "lat": -48.250637402280205,
        "lon": -135.17094455412456,
        "alt_km": 749.0636423264414,
        "timestamp": "2025-12-23T11:34:48.554261+00:00",
        "meta_object_name": "COSMOS 2251 DEB",
        "meta_object_id": "1993-036JY",
        "meta_epoch": "2025-12-23T04:12:26.442720",
        "meta_mean_motion": 14.40377763,
        "meta_eccentricity": 0.0020852,
        "meta_inclination": 74.0387,
        "meta_ra_of_asc_node": 244.1,
        "meta_arg_of_pericenter": 319.5068,
        "meta_mean_anomaly": 197.413,
        "meta_ephemeris_type": 0,
        "meta_classification_type": "U",
        "meta_norad_cat_id": 34061,
        "meta_element_set_no": 999,
        "meta_rev_at_epoch": 88330,
        "meta_bstar": 0.00027185,
        "meta_mean_motion_dot": 8.38e-06,
        "meta_mean_motion_ddot": 0,
        "tle_line1": "1 34061U 93036JY  25357.17530605  .00000838  00000+0  27185-3 0  9998",
        "tle_line2": "2 34061  74.0387 244.1000 0020852 319.5068 197.4130 14.40377763883304"
      },
      "geometry": {
        "type": "Point",
        "coordinates": [
          -135.17094455412456,
          -48.250637402280205
        ]
      }
    },
    {
      "type": "Feature",
      "properties": {
        "norad_id": 34062,
        "name": "COSMOS 2251 DEB",
        "group": "cosmos-2251-debris",
        "lat": 59.35844200108861,
        "lon": -92.01035176651307,
        "alt_km": 614.5738716606174,
        "timestamp": "2025-12-23T11:34:48.554270+00:00",
        "meta_object_name": "COSMOS 2251 DEB",
        "meta_object_id": "1993-036JZ",
        "meta_epoch": "2025-12-23T02:06:26.880768",
        "meta_mean_motion": 14.79056755,
        "meta_eccentricity": 0.0073226,
        "meta_inclination": 74.0286,
        "meta_ra_of_asc_node": 117.6784,
        "meta_arg_of_pericenter": 194.7008,
        "meta_mean_anomaly": 341.8356,
        "meta_ephemeris_type": 0,
        "meta_classification_type": "U",
        "meta_norad_cat_id": 34062,
        "meta_element_set_no": 999,
        "meta_rev_at_epoch": 88748,
        "meta_bstar": 0.0028791,
        "meta_mean_motion_dot": 0.00022324,
        "meta_mean_motion_ddot": 0,
        "tle_line1": "1 34062U 93036JZ  25357.08781112  .00022324  00000+0  28791-2 0  9997",
        "tle_line2": "2 34062  74.0286 117.6784 0073226 194.7008 341.8356 14.79056755887481"
      },
      "geometry": {
        "type": "Point",
        "coordinates": [
          -92.01035176651307,
          59.35844200108861
        ]
      }
    },
    {
      "type": "Feature",
      "properties": {
        "norad_id": 34064,
        "name": "COSMOS 2251 DEB",
        "group": "cosmos-2251-debris",
        "lat": -0.3009249541207689,
        "lon": -109.14761825916592,
        "alt_km": 741.8007038743126,
        "timestamp": "2025-12-23T11:34:48.554279+00:00",
        "meta_object_name": "COSMOS 2251 DEB",
        "meta_object_id": "1993-036KB",
        "meta_epoch": "2025-12-23T03:57:35.154144",
        "meta_mean_motion": 14.42371122,
        "meta_eccentricity": 0.0022384,
        "meta_inclination": 74.0319,
        "meta_ra_of_asc_node": 251.5274,
        "meta_arg_of_pericenter": 316.6321,
        "meta_mean_anomaly": 194.9451,
        "meta_ephemeris_type": 0,
        "meta_classification_type": "U",
        "meta_norad_cat_id": 34064,
        "meta_element_set_no": 999,
        "meta_rev_at_epoch": 88292,
        "meta_bstar": 0.000437,
        "meta_mean_motion_dot": 1.422e-05,
        "meta_mean_motion_ddot": 0,
        "tle_line1": "1 34064U 93036KB  25357.16499021  .00001422  00000+0  43700-3 0  9997",
        "tle_line2": "2 34064  74.0319 251.5274 0022384 316.6321 194.9451 14.42371122882929"
      },
      "geometry": {
        "type": "Point",
        "coordinates": [
          -109.14761825916592,
          -0.3009249541207689
        ]
      }
    },
    {
      "type": "Feature",
      "properties": {
        "norad_id": 34065,
        "name": "COSMOS 2251 DEB",
        "group": "cosmos-2251-debris",
        "lat": -26.014036781940394,
        "lon": 66.36482219989591,
        "alt_km": 777.37018799015,
        "timestamp": "2025-12-23T11:34:48.554288+00:00",
        "meta_object_name": "COSMOS 2251 DEB",
        "meta_object_id": "1993-036KC",
        "meta_epoch": "2025-12-23T02:58:45.187968",
        "meta_mean_motion": 14.38073241,
        "meta_eccentricity": 0.0016783,
        "meta_inclination": 74.0351,
        "meta_ra_of_asc_node": 238.9937,
        "meta_arg_of_pericenter": 334.7432,
        "meta_mean_anomaly": 177.8771,
        "meta_ephemeris_type": 0,
        "meta_classification_type": "U",
        "meta_norad_cat_id": 34065,
        "meta_element_set_no": 999,
        "meta_rev_at_epoch": 88354,
        "meta_bstar": 0.00015064,
        "meta_mean_motion_dot": 4.31e-06,
        "meta_mean_motion_ddot": 0,
        "tle_line1": "1 34065U 93036KC  25357.12413412  .00000431  00000+0  15064-3 0  9995",
        "tle_line2": "2 34065  74.0351 238.9937 0016783 334.7432 177.8771 14.38073241883541"
      },
      "geometry": {
        "type": "Point",
        "coordinates": [
          66.36482219989591,
          -26.014036781940394
        ]
      }
    }
  ]
}